[{"OBJECT_NAME":"JILIN-1 GAOFEN 03D50","OBJECT_ID":"2022-167J","EPOCH":"2026-03-09T22:35:59.947584","MEAN_MOTION":15.32279726,"ECCENTRICITY":0.00065764,"INCLINATION":97.6731,"RA_OF_ASC_NODE":232.9458,"ARG_OF_PERICENTER":101.1473,"MEAN_ANOMALY":259.0507,"EPHEMERIS_TYPE":0,"CLASSIFICATION_TYPE":"U","NORAD_CAT_ID":54690,"ELEMENT_SET_NO":999,"REV_AT_EPOCH":18014,"BSTAR":0.00049467973,"MEAN_MOTION_DOT":0.00015359,"MEAN_MOTION_DDOT":0},{"OBJECT_NAME":"STARLINK-33737","OBJECT_ID":"2025-069Z","EPOCH":"2026-03-09T11:28:32.822688","MEAN_MOTION":15.3018768,"ECCENTRICITY":9.607e-5,"INCLINATION":53.1584,"RA_OF_ASC_NODE":143.342,"ARG_OF_PERICENTER":92.8182,"MEAN_ANOMALY":267.2928,"EPHEMERIS_TYPE":0,"CLASSIFICATION_TYPE":"U","NORAD_CAT_ID":63456,"ELEMENT_SET_NO":999,"REV_AT_EPOCH":5326,"BSTAR":0.00076330674,"MEAN_MOTION_DOT":0.00022307,"MEAN_MOTION_DDOT":0}]
